start=new Date('2021-11-16T00:00:00.000Z').valueOf();
sats=[{"LAUNCH_DATE":"2021-05-09","TIME_SYSTEM":"UTC","OBJECT_ID":"2021-040AH","TLE_LINE2":"2 48459  53.0568  56.6099 0001296  80.1677 279.9458 15.06403017 29193","TLE_LINE1":"1 48459U 21040AH  21319.79060936  .00002792  00000-0  20623-3 0  9999","CENTER_NAME":"EARTH","REV_AT_EPOCH":"2919","ECCENTRICITY":"0.00012960","DECAY_DATE":null,"ELEMENT_SET_NO":"999","EPOCH":"2021-11-15T18:58:28.648704","INCLINATION":"53.0568","OBJECT_TYPE":"PAYLOAD","BSTAR":"0.00020623000000","GP_ID":"189839452","REF_FRAME":"TEME","EPHEMERIS_TYPE":"0","OBJECT_NAME":"STARLINK-2579","PERIAPSIS":"546.307","MEAN_MOTION_DOT":"0.00002792","NORAD_CAT_ID":"48459","PERIOD":"95.592","CLASSIFICATION_TYPE":"U","SEMIMAJOR_AXIS":"6925.339","MEAN_MOTION":"15.06403017","RCS_SIZE":"LARGE","MEAN_MOTION_DDOT":"0.0000000000000","FILE":"3215928","MEAN_ANOMALY":"279.9458","SITE":"AFETR","MEAN_ELEMENT_THEORY":"SGP4","COUNTRY_CODE":"US","ARG_OF_PERICENTER":"80.1677","RA_OF_ASC_NODE":"56.6099","APOAPSIS":"548.102"},{"CENTER_NAME":"EARTH","REV_AT_EPOCH":"2969","TLE_LINE1":"1 48460U 21040AJ  21319.77680329  .00001783  00000-0  13857-3 0  9993","TLE_LINE2":"2 48460  53.0568  56.6697 0001295  89.7780 270.3357 15.06399703 29692","TIME_SYSTEM":"UTC","OBJECT_ID":"2021-040AJ","LAUNCH_DATE":"2021-05-09","GP_ID":"189839802","OBJECT_TYPE":"PAYLOAD","BSTAR":"0.00013857000000","INCLINATION":"53.0568","EPOCH":"2021-11-15T18:38:35.804256","DECAY_DATE":null,"ECCENTRICITY":"0.00012950","ELEMENT_SET_NO":"999","MEAN_MOTION":"15.06399703","PERIOD":"95.592","NORAD_CAT_ID":"48460","CLASSIFICATION_TYPE":"U","MEAN_MOTION_DOT":"0.00001783","SEMIMAJOR_AXIS":"6925.349","EPHEMERIS_TYPE":"0","OBJECT_NAME":"STARLINK-2582","PERIAPSIS":"546.318","REF_FRAME":"TEME","APOAPSIS":"548.111","COUNTRY_CODE":"US","SITE":"AFETR","MEAN_ANOMALY":"270.3357","MEAN_ELEMENT_THEORY":"SGP4","RA_OF_ASC_NODE":"56.6697","ARG_OF_PERICENTER":"89.7780","FILE":"3215928","MEAN_MOTION_DDOT":"0.0000000000000","RCS_SIZE":"LARGE"},{"APOAPSIS":"548.108","ARG_OF_PERICENTER":"92.1342","RA_OF_ASC_NODE":"57.1953","MEAN_ANOMALY":"267.9796","SITE":"AFETR","MEAN_ELEMENT_THEORY":"SGP4","COUNTRY_CODE":"US","MEAN_MOTION_DDOT":"0.0000000000000","FILE":"3215928","RCS_SIZE":"LARGE","MEAN_MOTION":"15.06401521","SEMIMAJOR_AXIS":"6925.344","MEAN_MOTION_DOT":"0.00000107","PERIOD":"95.592","NORAD_CAT_ID":"48461","CLASSIFICATION_TYPE":"U","PERIAPSIS":"546.309","OBJECT_NAME":"STARLINK-2693","EPHEMERIS_TYPE":"0","REF_FRAME":"TEME","GP_ID":"189839569","INCLINATION":"53.0564","EPOCH":"2021-11-15T15:48:44.942400","BSTAR":"0.00002606000000","OBJECT_TYPE":"PAYLOAD","ELEMENT_SET_NO":"999","ECCENTRICITY":"0.00012990","DECAY_DATE":null,"REV_AT_EPOCH":"2917","CENTER_NAME":"EARTH","TLE_LINE2":"2 48461  53.0564  57.1953 0001299  92.1342 267.9796 15.06401521 29170","TLE_LINE1":"1 48461U 21040AK  21319.65885350  .00000107  00000-0  26060-4 0  9992","TIME_SYSTEM":"UTC","OBJECT_ID":"2021-040AK","LAUNCH_DATE":"2021-05-09"},{"FILE":"3215928","MEAN_MOTION_DDOT":"0.0000000000000","RCS_SIZE":"LARGE","APOAPSIS":"548.249","RA_OF_ASC_NODE":"62.4037","ARG_OF_PERICENTER":"67.4878","COUNTRY_CODE":"US","MEAN_ANOMALY":"292.6270","SITE":"AFETR","MEAN_ELEMENT_THEORY":"SGP4","PERIAPSIS":"546.159","EPHEMERIS_TYPE":"0","OBJECT_NAME":"STARLINK-2683","REF_FRAME":"TEME","MEAN_MOTION":"15.06403127","SEMIMAJOR_AXIS":"6925.339","PERIOD":"95.592","NORAD_CAT_ID":"48462","CLASSIFICATION_TYPE":"U","MEAN_MOTION_DOT":"-0.00000133","OBJECT_TYPE":"PAYLOAD","BSTAR":"0.00000997380000","EPOCH":"2021-11-15T14:45:40.968864","INCLINATION":"53.0530","ELEMENT_SET_NO":"999","DECAY_DATE":null,"ECCENTRICITY":"0.00015090","GP_ID":"189839336","TIME_SYSTEM":"UTC","OBJECT_ID":"2021-040AL","LAUNCH_DATE":"2021-05-09","REV_AT_EPOCH":"2909","CENTER_NAME":"EARTH","TLE_LINE1":"1 48462U 21040AL  21319.61505751 -.00000133  00000-0  99738-5 0  9996","TLE_LINE2":"2 48462  53.0530  62.4037 0001509  67.4878 292.6270 15.06403127 29096"},{"GP_ID":"189839102","ECCENTRICITY":"0.00012780","DECAY_DATE":null,"ELEMENT_SET_NO":"999","INCLINATION":"53.0573","EPOCH":"2021-11-15T18:44:32.546400","BSTAR":"-0.00000779100000","OBJECT_TYPE":"PAYLOAD","TLE_LINE2":"2 48463  53.0573  61.6579 0001278  77.7661 282.3471 15.06395197 29123","TLE_LINE1":"1 48463U 21040AM  21319.78093225 -.00000397  00000-0 -77910-5 0  9994","CENTER_NAME":"EARTH","REV_AT_EPOCH":"2912","LAUNCH_DATE":"2021-05-09","OBJECT_ID":"2021-040AM","TIME_SYSTEM":"UTC","SITE":"AFETR","MEAN_ELEMENT_THEORY":"SGP4","MEAN_ANOMALY":"282.3471","COUNTRY_CODE":"US","ARG_OF_PERICENTER":"77.7661","RA_OF_ASC_NODE":"61.6579","APOAPSIS":"548.113","RCS_SIZE":"LARGE","MEAN_MOTION_DDOT":"0.0000000000000","FILE":"3215928","MEAN_MOTION_DOT":"-0.00000397","CLASSIFICATION_TYPE":"U","PERIOD":"95.592","NORAD_CAT_ID":"48463","SEMIMAJOR_AXIS":"6925.363","MEAN_MOTION":"15.06395197","REF_FRAME":"TEME","EPHEMERIS_TYPE":"0","OBJECT_NAME":"STARLINK-2689","PERIAPSIS":"546.343"},{"TLE_LINE1":"1 48464U 21040AN  21319.75976221 -.00000570  00000-0 -19390-4 0  9998","TLE_LINE2":"2 48464  53.0572  61.7519 0001475  76.4047 283.7107 15.06393597 29113","REV_AT_EPOCH":"2911","CENTER_NAME":"EARTH","LAUNCH_DATE":"2021-05-09","OBJECT_ID":"2021-040AN","TIME_SYSTEM":"UTC","GP_ID":"189839919","ELEMENT_SET_NO":"999","DECAY_DATE":null,"ECCENTRICITY":"0.00014750","BSTAR":"-0.00001939000000","OBJECT_TYPE":"PAYLOAD","EPOCH":"2021-11-15T18:14:03.454944","INCLINATION":"53.0572","SEMIMAJOR_AXIS":"6925.368","PERIOD":"95.593","NORAD_CAT_ID":"48464","CLASSIFICATION_TYPE":"U","MEAN_MOTION_DOT":"-0.00000570","MEAN_MOTION":"15.06393597","REF_FRAME":"TEME","PERIAPSIS":"546.212","OBJECT_NAME":"STARLINK-2686","EPHEMERIS_TYPE":"0","RA_OF_ASC_NODE":"61.7519","ARG_OF_PERICENTER":"76.4047","COUNTRY_CODE":"US","MEAN_ELEMENT_THEORY":"SGP4","SITE":"AFETR","MEAN_ANOMALY":"283.7107","APOAPSIS":"548.255","RCS_SIZE":"LARGE","FILE":"3215928","MEAN_MOTION_DDOT":"0.0000000000000"},{"OBJECT_ID":"2021-040AP","TIME_SYSTEM":"UTC","LAUNCH_DATE":"2021-05-09","CENTER_NAME":"EARTH","REV_AT_EPOCH":"2911","TLE_LINE1":"1 48465U 21040AP  21319.70446825 -.00000208  00000-0  48997-5 0  9999","TLE_LINE2":"2 48465  53.0579  61.9889 0001303  74.4599 285.6534 15.06396207 29119","BSTAR":"0.00000489970000","OBJECT_TYPE":"PAYLOAD","EPOCH":"2021-11-15T16:54:26.056800","INCLINATION":"53.0579","DECAY_DATE":null,"ECCENTRICITY":"0.00013030","ELEMENT_SET_NO":"999","GP_ID":"189839219","EPHEMERIS_TYPE":"0","OBJECT_NAME":"STARLINK-2681","PERIAPSIS":"546.323","REF_FRAME":"TEME","MEAN_MOTION":"15.06396207","NORAD_CAT_ID":"48465","PERIOD":"95.592","CLASSIFICATION_TYPE":"U","MEAN_MOTION_DOT":"-0.00000208","SEMIMAJOR_AXIS":"6925.360","FILE":"3215928","MEAN_MOTION_DDOT":"0.0000000000000","RCS_SIZE":"LARGE","APOAPSIS":"548.128","COUNTRY_CODE":"US","SITE":"AFETR","MEAN_ELEMENT_THEORY":"SGP4","MEAN_ANOMALY":"285.6534","RA_OF_ASC_NODE":"61.9889","ARG_OF_PERICENTER":"74.4599"},{"GP_ID":"189839686","DECAY_DATE":null,"ECCENTRICITY":"0.00013510","ELEMENT_SET_NO":"999","OBJECT_TYPE":"PAYLOAD","BSTAR":"-0.00002186200000","EPOCH":"2021-11-15T18:08:44.761632","INCLINATION":"53.0603","TLE_LINE1":"1 48466U 21040AQ  21319.75607363 -.00000607  00000-0 -21862-4 0  9996","TLE_LINE2":"2 48466  53.0603  61.7673 0001351  91.5659 268.5485 15.06394177 29127","CENTER_NAME":"EARTH","REV_AT_EPOCH":"2912","LAUNCH_DATE":"2021-05-09","OBJECT_ID":"2021-040AQ","TIME_SYSTEM":"UTC","COUNTRY_CODE":"US","MEAN_ELEMENT_THEORY":"SGP4","SITE":"AFETR","MEAN_ANOMALY":"268.5485","RA_OF_ASC_NODE":"61.7673","ARG_OF_PERICENTER":"91.5659","APOAPSIS":"548.167","RCS_SIZE":"LARGE","FILE":"3215928","MEAN_MOTION_DDOT":"0.0000000000000","CLASSIFICATION_TYPE":"U","PERIOD":"95.593","NORAD_CAT_ID":"48466","MEAN_MOTION_DOT":"-0.00000607","SEMIMAJOR_AXIS":"6925.366","MEAN_MOTION":"15.06394177","REF_FRAME":"TEME","OBJECT_NAME":"STARLINK-2687","EPHEMERIS_TYPE":"0","PERIAPSIS":"546.296"},{"OBJECT_ID":"2021-040AR","TIME_SYSTEM":"UTC","LAUNCH_DATE":"2021-05-09","REV_AT_EPOCH":"2911","CENTER_NAME":"EARTH","TLE_LINE2":"2 48467  53.0571  61.9492 0001029  81.0616 279.0490 15.06397713 29113","TLE_LINE1":"1 48467U 21040AR  21319.71553122  .00001064  00000-0  90280-4 0  9992","EPOCH":"2021-11-15T17:10:21.897408","INCLINATION":"53.0571","OBJECT_TYPE":"PAYLOAD","BSTAR":"0.00009028000000","ELEMENT_SET_NO":"999","ECCENTRICITY":"0.00010290","DECAY_DATE":null,"GP_ID":"189839453","PERIAPSIS":"546.508","OBJECT_NAME":"STARLINK-2659","EPHEMERIS_TYPE":"0","REF_FRAME":"TEME","MEAN_MOTION":"15.06397713","SEMIMAJOR_AXIS":"6925.356","MEAN_MOTION_DOT":"0.00001064","CLASSIFICATION_TYPE":"U","PERIOD":"95.592","NORAD_CAT_ID":"48467","MEAN_MOTION_DDOT":"0.0000000000000","FILE":"3215928","RCS_SIZE":"LARGE","APOAPSIS":"547.933","ARG_OF_PERICENTER":"81.0616","RA_OF_ASC_NODE":"61.9492","SITE":"AFETR","MEAN_ELEMENT_THEORY":"SGP4","MEAN_ANOMALY":"279.0490","COUNTRY_CODE":"US"},{"MEAN_MOTION_DDOT":"0.0000000000000","FILE":"3215928","RCS_SIZE":"LARGE","APOAPSIS":"548.229","MEAN_ANOMALY":"285.9082","SITE":"AFETR","MEAN_ELEMENT_THEORY":"SGP4","COUNTRY_CODE":"US","ARG_OF_PERICENTER":"74.2066","RA_OF_ASC_NODE":"61.7257","EPHEMERIS_TYPE":"0","OBJECT_NAME":"STARLINK-2685","PERIAPSIS":"546.228","REF_FRAME":"TEME","MEAN_MOTION":"15.06395207","MEAN_MOTION_DOT":"-0.00000380","NORAD_CAT_ID":"48468","PERIOD":"95.592","CLASSIFICATION_TYPE":"U","SEMIMAJOR_AXIS":"6925.363","EPOCH":"2021-11-15T18:19:21.683424","INCLINATION":"53.0564","OBJECT_TYPE":"PAYLOAD","BSTAR":"-0.00000660140000","ECCENTRICITY":"0.00014450","DECAY_DATE":null,"ELEMENT_SET_NO":"999","GP_ID":"189839803","OBJECT_ID":"2021-040AS","TIME_SYSTEM":"UTC","LAUNCH_DATE":"2021-05-09","CENTER_NAME":"EARTH","REV_AT_EPOCH":"2912","TLE_LINE2":"2 48468  53.0564  61.7257 0001445  74.2066 285.9082 15.06395207 29128","TLE_LINE1":"1 48468U 21040AS  21319.76344541 -.00000380  00000-0 -66014-5 0  9992"}];
